MERIDIAN 10             
1 52145U 22030A   26165.97630447  .00000192  00000+0  00000+0 0  9994
2 52145  62.6766 141.0389 6783185 272.8558  17.6523  2.00613779 30982
OMNI-L1                 
1 52157U 22033A   26166.15435661  .00001709  00000+0  21813-3 0  9996
2 52157  97.8397 245.3711 0003875 297.4372  62.6447 14.82742099227157
ENMAP                   
1 52159U 22033C   26166.19817341  .00000673  00000+0  10749-3 0  9996
2 52159  97.9799 248.4757 0001368  84.7802 275.3563 14.74987277226364
ARCSAT-1                
1 52161U 22033E   26166.19326481  .00009721  00000+0  15419-3 0  9991
2 52161  97.2757 258.4362 0004763 185.5103 174.6099 15.53576772235393
GLOBAL-18               
1 52196U 22034B   26165.60480387  .00020961  00000+0  42749-3 0  9996
2 52196  52.9826 268.9812 0003090 267.8804  92.1848 15.46192690236567
GAOFEN-3 03             
1 52200U 22035A   26166.21771049 -.00000029  00000+0  43189-5 0  9994
2 52200  98.4056 174.8264 0001251 101.2297 258.9033 14.42214806220563
DAQI-1                  
1 52257U 22039A   26166.15471951  .00000463  00000+0  11128-3 0  9999
2 52257  98.1484 105.0489 0002234 265.3198  94.7746 14.57677295221644
BRO-6                   
1 52422U 22047AE  26166.13706453  .00032547  00000+0  57183-3 0  9997
2 52422  97.3407 257.1524 0005224  85.7389 274.4459 15.50433366230833
JILIN-1 GAOFEN 3D27     
1 52444U 22048B   26166.18573679  .00104300  00000+0  69938-3 0  9997
2 52444  97.5720 279.9393 0001068  39.9285 320.2058 15.74931129229166
JILIN-1 GAOFEN 3D28     
1 52445U 22048C   26166.18887704  .00120836  00000+0  70965-3 0  9999
2 52445  97.5658 280.0845 0000751 184.7015 175.4244 15.77915205229213
VIGORIDE-3              
1 52760U 22057AE  26166.12010258  .00005258  00000+0  19956-3 0  9998
2 52760  97.6602 306.0392 0009514 126.7503 233.4610 15.27261519224846
ION SCV-006             
1 52761U 22057AF  26166.15763978  .00010817  00000+0  22808-3 0  9993
2 52761  97.6096 314.6819 0018344 120.5503 239.7559 15.45245066225803
SHERPA-AC1              
1 52763U 22057AH  26165.98257623  .00006721  00000+0  19254-3 0  9990
2 52763  97.6681 315.1166 0008943 100.0625 260.1628 15.36236428225366
OMNI-L2                 
1 52771U 22057AR  26166.16367907  .00001207  00000+0  16056-3 0  9998
2 52771  97.4716 228.6580 0005960 344.1809  15.9218 14.81365823220098
STEP CUBE LAB-II        
1 52897U 22065D   26166.15292463  .00000760  00000+0  15648-3 0  9998
2 52897  98.2218 310.0604 0009422  38.5246 321.6626 14.63300953211208
RANDEV                  
1 52898U 22065E   26166.22290022  .00000811  00000+0  16502-3 0  9993
2 52898  98.2204 310.4810 0008780  38.9622 321.2211 14.63688460210965
SNUGLITE-II             
1 52899U 22065F   26166.11778971  .00000821  00000+0  16457-3 0  9996
2 52899  98.2198 310.9519 0008132  38.9764 321.2024 14.64344370210699
MIMAN                   
1 52900U 22065G   26166.13176623  .00000432  00000+0  95887-4 0  9990
2 52900  98.2257 308.6245 0008351  40.7575 319.4249 14.61841821210140
STARLINK-4362           
1 53043U 22077A   26166.07250235 -.00002077  00000+0 -14001-3 0  9994
2 53043  97.3599 345.1167 0002091  72.5195 287.6261 15.05659041215564
LARES-2                 
1 53105U 22080A   26164.25617662 -.00000017  00000+0  00000+0 0  9997
2 53105  70.1627 306.6773 0005398 335.8266  24.1972  6.38965105 91412
GREENCUBE (IO-117)      
1 53109U 22080E   26164.29338770 -.00000003  00000+0  00000+0 0  9990
2 53109  70.1444 299.5995 0008910 290.4576  69.5127  6.42583230 91811
STARLINK-4410           
1 53204U 22084R   26166.16668980  .00083426  00000+0  28416-2 0  9990
2 53204  97.6004 227.2080 0001344  72.6532 180.3433 15.30059315  5751
COSMOS 2558             
1 53323U 22089A   26166.17679650  .00090054  00000+0  60837-3 0  9993
2 53323  97.2262 270.1588 0001035 229.7813 130.3361 15.74802796217510
TECMS                   
1 53346U 22090A   26166.18585008  .00003221  00000+0  14660-3 0  9997
2 53346  97.3141 234.3511 0003261 181.5316 178.5910 15.21395232214500
DONGPO 02               
1 53452U 22098J   26164.99966420  .00113495  00000+0  78991-3 0  9993
2 53452  97.5515 295.9132 0002034 282.6019  77.5017 15.74035042214297
DONGPO 01               
1 53453U 22098K   26166.19533973  .00077885  00000+0  59052-3 0  9990
2 53453  97.5585 297.7429 0001767 233.8483 126.2616 15.72127998214443
STARLINK-4400           
1 53468U 22099D   26166.05173424 -.00001697  00000+0 -11366-3 0  9999
2 53468  97.3572 285.1769 0001033 156.5605 203.5669 15.05658570210628
STARLINK-4621           
1 53676U 22105AE  26166.18742698 -.00001204  00000+0 -79490-4 0  9994
2 53676  97.3588  45.3205 0002039  87.0850 273.0611 15.05654806207908
SHERPA-LTC2             
1 53754U 22107BG  26165.87418292  .00005445  00000+0  28028-3 0  9997
2 53754  53.2350 230.1222 0394057 219.5563 137.6042 14.69692269202208
CENTISPACE-1 S3         
1 53757U 22108A   26166.15565162  .00000403  00000+0  11915-3 0  9998
2 53757  53.5334  63.6595 0009242 349.5710  10.5072 14.61250292201237
