OBJECT_NAME,OBJECT_ID,EPOCH,MEAN_MOTION,ECCENTRICITY,INCLINATION,RA_OF_ASC_NODE,ARG_OF_PERICENTER,MEAN_ANOMALY,EPHEMERIS_TYPE,CLASSIFICATION_TYPE,NORAD_CAT_ID,ELEMENT_SET_NO,REV_AT_EPOCH,BSTAR,MEAN_MOTION_DOT,MEAN_MOTION_DDOT
MERIDIAN 10,2022-030A,2026-06-14T23:25:52.706208,2.00613779,.6783185,62.6766,141.0389,272.8558,17.6523,0,U,52145,999,3098,0,.192E-5,0
OMNI-L1,2022-033A,2026-06-15T03:42:16.411104,14.82742099,.0003875,97.8397,245.3711,297.4372,62.6447,0,U,52157,999,22715,.21813E-3,.1709E-4,0
ENMAP,2022-033C,2026-06-15T04:45:22.182624,14.74987277,.0001368,97.9799,248.4757,84.7802,275.3563,0,U,52159,999,22636,.10749E-3,.673E-5,0
ARCSAT-1,2022-033E,2026-06-15T04:38:18.079584,15.53576772,.0004763,97.2757,258.4362,185.5103,174.6099,0,U,52161,999,23539,.15419E-3,.9721E-4,0
GLOBAL-18,2022-034B,2026-06-14T14:30:55.054368,15.46192690,.00030907,52.9826,268.9812,267.8804,92.1848,0,U,52196,999,23656,.42749335E-3,.20961E-3,0
GAOFEN-3 03,2022-035A,2026-06-15T05:13:30.186336,14.42214806,.0001251,98.4056,174.8264,101.2297,258.9033,0,U,52200,999,22056,.43189E-5,-.29E-6,0
DAQI-1,2022-039A,2026-06-15T03:42:47.765664,14.57677295,.0002234,98.1484,105.0489,265.3198,94.7746,0,U,52257,999,22164,.11128E-3,.463E-5,0
BRO-6,2022-047AE,2026-06-15T03:17:22.375392,15.50433366,.0005224,97.3407,257.1524,85.7389,274.4459,0,U,52422,999,23083,.57183E-3,.32547E-3,0
JILIN-1 GAOFEN 3D27,2022-048B,2026-06-15T04:27:27.658656,15.74931129,.0001068,97.5720,279.9393,39.9285,320.2058,0,U,52444,999,22916,.69938E-3,.1043E-2,0
JILIN-1 GAOFEN 3D28,2022-048C,2026-06-15T04:31:58.976256,15.77915205,.0000751,97.5658,280.0845,184.7015,175.4244,0,U,52445,999,22921,.70965E-3,.120836E-2,0
VIGORIDE-3,2022-057AE,2026-06-15T02:52:56.862912,15.27261519,.0009514,97.6602,306.0392,126.7503,233.4610,0,U,52760,999,22484,.19956E-3,.5258E-4,0
ION SCV-006,2022-057AF,2026-06-15T03:47:00.076992,15.45245066,.0018344,97.6096,314.6819,120.5503,239.7559,0,U,52761,999,22580,.22808E-3,.10817E-3,0
SHERPA-AC1,2022-057AH,2026-06-14T23:34:54.586272,15.36236428,.0008943,97.6681,315.1166,100.0625,260.1628,0,U,52763,999,22536,.19254E-3,.6721E-4,0
OMNI-L2,2022-057AR,2026-06-15T03:55:41.871648,14.81365823,.000596,97.4716,228.6580,344.1809,15.9218,0,U,52771,999,22009,.16056E-3,.1207E-4,0
STEP CUBE LAB-II,2022-065D,2026-06-15T03:40:12.688032,14.63300953,.0009422,98.2218,310.0604,38.5246,321.6626,0,U,52897,999,21120,.15648E-3,.76E-5,0
RANDEV,2022-065E,2026-06-15T05:20:58.579008,14.63688460,.000878,98.2204,310.4810,38.9622,321.2211,0,U,52898,999,21096,.16502E-3,.811E-5,0
SNUGLITE-II,2022-065F,2026-06-15T02:49:37.030944,14.64344370,.0008132,98.2198,310.9519,38.9764,321.2024,0,U,52899,999,21069,.16457E-3,.821E-5,0
MIMAN,2022-065G,2026-06-15T03:09:44.602272,14.61841821,.0008351,98.2257,308.6245,40.7575,319.4249,0,U,52900,999,21014,.95887E-4,.432E-5,0
STARLINK-4362,2022-077A,2026-06-15T01:44:24.203040,15.05659041,.0002091,97.3599,345.1167,72.5195,287.6261,0,U,53043,999,21556,-.14001E-3,-.2077E-4,0
LARES-2,2022-080A,2026-06-13T06:08:53.659968,6.38965105,.0005398,70.1627,306.6773,335.8266,24.1972,0,U,53105,999,9141,0,-.17E-6,0
GREENCUBE (IO-117),2022-080E,2026-06-13T07:02:28.697280,6.42583230,.00089108,70.1444,299.5995,290.4576,69.5127,0,U,53109,999,9181,0,-.3E-7,0
STARLINK-4410,2022-084R,2026-06-15T04:00:01.998720,15.30059315,.0001344,97.6004,227.2080,72.6532,180.3433,0,U,53204,999,575,.28416E-2,.83426E-3,0
COSMOS 2558,2022-089A,2026-06-15T04:14:35.217600,15.74802796,.0001035,97.2262,270.1588,229.7813,130.3361,0,U,53323,999,21751,.60837E-3,.90054E-3,0
TECMS,2022-090A,2026-06-15T04:27:37.446912,15.21395232,.0003261,97.3141,234.3511,181.5316,178.5910,0,U,53346,999,21450,.1466E-3,.3221E-4,0
DONGPO 02,2022-098J,2026-06-13T23:59:30.986880,15.74035042,.00020347,97.5515,295.9132,282.6019,77.5017,0,U,53452,999,21429,.78990934E-3,.113495E-2,0
DONGPO 01,2022-098K,2026-06-15T04:41:17.352672,15.72127998,.0001767,97.5585,297.7429,233.8483,126.2616,0,U,53453,999,21444,.59052E-3,.77885E-3,0
STARLINK-4400,2022-099D,2026-06-15T01:14:29.838336,15.05658570,.0001033,97.3572,285.1769,156.5605,203.5669,0,U,53468,999,21062,-.11366E-3,-.1697E-4,0
STARLINK-4621,2022-105AE,2026-06-15T04:29:53.691072,15.05654806,.0002039,97.3588,45.3205,87.0850,273.0611,0,U,53676,999,20790,-.7949E-4,-.1204E-4,0
SHERPA-LTC2,2022-107BG,2026-06-14T20:58:49.404288,14.69692269,.0394057,53.2350,230.1222,219.5563,137.6042,0,U,53754,999,20220,.28028E-3,.5445E-4,0
CENTISPACE-1 S3,2022-108A,2026-06-15T03:44:08.299968,14.61250292,.0009242,53.5334,63.6595,349.5710,10.5072,0,U,53757,999,20123,.11915E-3,.403E-5,0
